              TDR Cartesian                         TDR Cartesian  
    -----------------------------------       --------------------------------
     X    =       -9099572.93                 X    =        -2773549.83
     Y    =      -12562075.92  feet           Y    =        -3828920.74  meter
     Z    =       15926714.50                 Z    =         4854462.58
     XDOT =      12381.753413                 XDOT =        3773.958440
     YDOT =     -19148.646113  feet/sec       YDOT =       -5836.507335  meter/sec
     ZDOT =      -8001.380779                 ZDOT =       -2438.820861
  
  
    The mean element set is posted at the UTC for which position is
    just north of the next ascending node relative to the above
    vector time
 
 
    TWO LINE MEAN ELEMENT SET
  
    ISS
    1 25544U 98067A   16089.48841814  .00016717  00000-0  10270-3 0  9100
    2 25544  51.6410  95.5368 0002305   8.1746 351.9444 15.54341244 32582
  
  
    Satellite: ISS
    Catalog Number: 25544
    Epoch time:      16089.48841814   =   yrday.fracday
    Element set:     910
    Inclination:       51.6410  deg
    RA of node:        95.5368  deg
    Eccentricity:     .0002305     
    Arg of perigee:     8.1746  deg
    Mean anomaly:     351.9444  deg
    Mean motion:   15.54341244  rev/day
    Decay rate:    1.67170E-04  rev/day^2
    Epoch rev:            3258
    Checksum:              306
 
 
    Coasting Arc #12 (Orbit 3272)
    ---------------------------------------
 
    Vector Time (GMT): 2016/090/10:40:00.000
    Vector Time (MET): N/A
    Weight (LBS)     : 917037.0
 
              M50 Cartesian                         M50 Keplerian  
    -----------------------------------       --------------------------------
     X    =        3057699.84                 A    =         6782332.75  meter
     Y    =        4631438.70  meter          E    =           .0006686
     Z    =       -3903954.75                 I    =           52.00993
     XDOT =      -3214.652122                 Wp   =           84.40080
     YDOT =       5597.514560  meter/sec      RA   =           89.89261  deg
     ZDOT =       4129.463377                 TA   =          228.70993
                                              MA   =          228.76752
                                              Ha   =            221.060  n.mi
                                              Hp   =            214.192
 
              M50 Cartesian                         J2K Cartesian  
    -----------------------------------       --------------------------------
     X    =       10031823.63                 X    =         3024646.51
     Y    =       15195008.86  feet           Y    =         4665446.78  meter
     Z    =      -12808250.51                 Z    =        -3889181.84
     XDOT =     -10546.758929                 XDOT =       -3297.065247
     YDOT =      18364.549080  feet/sec       YDOT =        5561.105744  meter/sec
     ZDOT =      13548.108193                 ZDOT =        4113.646673
 
              TDR Cartesian                         TDR Cartesian  
    -----------------------------------       --------------------------------
     X    =        6556795.59                 X    =         1998511.30
     Y    =       17033911.28  feet           Y    =         5191936.16  meter
     Z    =      -12744856.16                 Z    =        -3884632.16
     XDOT =     -13141.003888                 XDOT =       -4005.377985
     YDOT =      15126.385146  feet/sec       YDOT =        4610.522193  meter/sec
     ZDOT =      13478.373339                 ZDOT =        4108.208194
  
  
    The mean element set is posted at the UTC for which position is
    just north of the next ascending node relative to the above
    vector time
 
 
    TWO LINE MEAN ELEMENT SET
  
    ISS
    1 25544U 98067A   16090.45282689  .00016717  00000-0  10270-3 0  9119
    2 25544  51.6429  90.7282 0002415  11.3754 348.7453 15.54334766 32733
  
  
    Satellite: ISS
    Catalog Number: 25544
    Epoch time:      16090.45282689   =   yrday.fracday
    Element set:     911
    Inclination:       51.6429  deg
    RA of node:        90.7282  deg
    Eccentricity:     .0002415     
    Arg of perigee:    11.3754  deg
    Mean anomaly:     348.7453  deg
    Mean motion:   15.54334766  rev/day
    Decay rate:    1.67170E-04  rev/day^2
    Epoch rev:            3273
    Checksum:              316
 
 
    Coasting Arc #13 (Orbit 3275)
    ---------------------------------------
 
    Vector Time (GMT): 2016/090/14:15:30.000
    Vector Time (MET): N/A
    Weight (LBS)     : 901911.1
 
              M50 Cartesian                         M50 Keplerian  
    -----------------------------------       --------------------------------
     X    =       -3915840.83                 A    =         6777935.39  meter
     Y    =        2248068.48  meter          E    =           .0005100
     Z    =        5050869.09                 I    =           51.99286
     XDOT =      -1630.175152                 Wp   =           98.76013
     YDOT =      -7237.544307  meter/sec      RA   =           89.19116  deg
     ZDOT =       1955.048671                 TA   =          332.35715
                                              MA   =          332.38426
                                              Ha   =            221.076  n.mi
                                              Hp   =            214.169
 
              M50 Cartesian                         J2K Cartesian  
    -----------------------------------       --------------------------------
     X    =      -12847246.80                 X    =        -3965223.30
     Y    =        7375552.77  feet           Y    =         2204003.27  meter
     Z    =       16571092.82                 Z    =         5031726.70
     XDOT =      -5348.343673                 XDOT =       -1558.618796
     YDOT =     -23745.224103  feet/sec       YDOT =       -7255.373744  meter/sec
     ZDOT =       6414.201677                 ZDOT =        1947.304086
 
              TDR Cartesian                         TDR Cartesian  
    -----------------------------------       --------------------------------
     X    =       -4831815.19                 X    =        -1472737.27
     Y    =       14102049.82  feet           Y    =         4298304.78  meter
     Z    =       16487492.21                 Z    =         5025387.63
     XDOT =     -18723.287255                 XDOT =       -5706.857955
     YDOT =     -13885.921923  feet/sec       YDOT =       -4232.429002  meter/sec
     ZDOT =       6381.817615                 ZDOT =        1945.178009
  
  
    The mean element set is posted at the UTC for which position is
    just north of the next ascending node relative to the above
    vector time
 
 
    TWO LINE MEAN ELEMENT SET
  
    ISS
    1 25544U 98067A   16090.64570770  .00016717  00000-0  10270-3 0  9122
    2 25544  51.6403  89.7664 0002462   6.2495 353.8688 15.54356214 32766
  
  
    Satellite: ISS
    Catalog Number: 25544
    Epoch time:      16090.64570770   =   yrday.fracday
    Element set:     912
    Inclination:       51.6403  deg
    RA of node:        89.7664  deg
    Eccentricity:     .0002462     
    Arg of perigee:     6.2495  deg
    Mean anomaly:     353.8688  deg
    Mean motion:   15.54356214  rev/day
    Decay rate:    1.67170E-04  rev/day^2
    Epoch rev:            3276
    Checksum:              322
 
 
    Coasting Arc #14 (Orbit 3290)
    ---------------------------------------
 
    Vector Time (GMT): 2016/091/14:15:30.000
    Vector Time (MET): N/A
    Weight (LBS)     : 901911.1
 
              M50 Cartesian                         M50 Keplerian  
    -----------------------------------       --------------------------------
     X    =        4163240.55                 A    =         6776750.20  meter
     Y    =        -373858.01  meter          E    =           .0015576
     Z    =       -5347272.72                 I    =           51.98688
     XDOT =        737.815612                 Wp   =           81.20180
     YDOT =       7621.807772  meter/sec      RA   =           84.21356  deg
     ZDOT =         43.984098                 TA   =          189.20162
                                              MA   =          189.23020
                                              Ha   =            221.056  n.mi
                                              Hp   =            214.238
 
              M50 Cartesian                         J2K Cartesian  
    -----------------------------------       --------------------------------
     X    =       13658925.70                 X    =         4193086.49
     Y    =       -1226568.28  feet           Y    =         -327135.46  meter
     Z    =      -17543545.67                 Z    =        -5326976.19
     XDOT =       2420.654894                 XDOT =         652.318169
     YDOT =      25005.931010  feet/sec       YDOT =        7629.580476  meter/sec
     ZDOT =        144.304784                 ZDOT =          47.359920
 
              TDR Cartesian                         TDR Cartesian  
    -----------------------------------       --------------------------------
     X    =        9339502.96                 X    =         2846680.50
     Y    =      -10194825.54  feet           Y    =        -3107382.82  meter
     Z    =      -17455255.15                 Z    =        -5320361.77
     XDOT =      17908.197408                 XDOT =        5458.418570
     YDOT =      16149.560620  feet/sec       YDOT =        4922.386077  meter/sec
     ZDOT =        157.618075                 ZDOT =          48.041989
  
  
    The mean element set is posted at the UTC for which position is
    just north of the next ascending node relative to the above
    vector time
 
 
    TWO LINE MEAN ELEMENT SET
  
    ISS
    1 25544U 98067A   16091.61010772  .00016717  00000-0  10270-3 0  9132
    2 25544  51.6399  84.9572 0002520  11.9225 348.1987 15.54337550 32912
  
